0 COSMOS 1275 DEB
1 12724U 81053BR  13282.32858212  .00001172  00000-0  81602-3 0  6909
2 12724 082.9400 249.0349 0023550 083.5494 039.6680 13.97812604629011
0 COSMOS 1275 DEB
1 12724U 81053BR  13283.41042811  .00001098  00000-0  76351-3 0  6913
2 12724 082.9401 248.2017 0023535 080.5977 083.4634 13.97814565629161
0 COSMOS 1275 DEB
1 12724U 81053BR  13286.18107759  .00001194  00000-0  83140-3 0  6936
2 12724 082.9406 246.0681 0023471 073.0970 345.2269 13.97819796629555
0 COSMOS 1275 DEB
1 12724U 81053BR  13287.47960022  .00001309  00000-0  91249-3 0  6947
2 12724 082.9409 245.0681 0023423 069.5318 039.3937 13.97822720629734
0 COSMOS 1275 DEB
1 12724U 81053BR  13288.55552759  .00001521  00000-0  10617-2 0  6957
2 12724 082.9412 244.2396 0023382 066.6256 053.4277 13.97826507629882
0 COSMOS 1275 DEB
1 12724U 81053BR  13290.19045406  .00001392  00000-0  97066-3 0  6967
2 12724 082.9415 242.9807 0023312 062.1592 000.3994 13.97832328630117
0 COSMOS 1275 DEB
1 12724U 81053BR  13291.19276859  .00001362  00000-0  94917-3 0  6976
2 12724 082.9416 242.2090 0023269 059.3926 004.1034 13.97835273630259
0 COSMOS 1275 DEB
1 12724U 81053BR  13292.19511727  .00001381  00000-0  96285-3 0  6985
2 12724 082.9416 241.4377 0023200 056.7251 007.8917 13.97837175630393
0 COSMOS 1275 DEB
1 12724U 81053BR  13293.19731750  .00001456  00000-0  10155-2 0  6991
2 12724 082.9415 240.6661 0023246 053.9989 011.0009 13.97839653630534
0 COSMOS 1275 DEB
1 12724U 81053BR  13294.21034289  .00001437  00000-0  10024-2 0  7005
2 12724 082.9415 239.8860 0023215 051.2434 068.5923 13.97842920630675
0 COSMOS 1275 DEB
1 12724U 81053BR  13295.35569538  .00001556  00000-0  10860-2 0  7012
2 12724 082.9415 239.0043 0023154 048.1169 072.0846 13.97846048630839
